{
    "links": {
        "self": "http://www.neowsapp.com/rest/v1/neo/3728374?api_key=iIulBulltgU6a56xZRHN4H3l9WmuAYTsLGpBGhQ2"
    },
    "id": "3728374",
    "neo_reference_id": "3728374",
    "name": "(2015 RU178)",
    "designation": "2015 RU178",
    "nasa_jpl_url": "http://ssd.jpl.nasa.gov/sbdb.cgi?sstr=3728374",
    "absolute_magnitude_h": 27.8,
    "estimated_diameter": {
        "kilometers": {
            "estimated_diameter_min": 0.0073207399,
            "estimated_diameter_max": 0.016369672
        },
        "meters": {
            "estimated_diameter_min": 7.3207398935,
            "estimated_diameter_max": 16.3696720474
        },
        "miles": {
            "estimated_diameter_min": 0.0045488955,
            "estimated_diameter_max": 0.0101716395
        },
        "feet": {
            "estimated_diameter_min": 24.0181762721,
            "estimated_diameter_max": 53.70627484
        }
    },
    "is_potentially_hazardous_asteroid": false,
    "close_approach_data": [
        {
            "close_approach_date": "2015-09-09",
            "close_approach_date_full": "2015-Sep-09 01:41",
            "epoch_date_close_approach": 1441762860000,
            "relative_velocity": {
                "kilometers_per_second": "19.2950569666",
                "kilometers_per_hour": "69462.2050798446",
                "miles_per_hour": "43161.1129286401"
            },
            "miss_distance": {
                "astronomical": "0.0048721814",
                "lunar": "1.8952785646",
                "kilometers": "728867.959693618",
                "miles": "452897.5490152084"
            },
            "orbiting_body": "Moon"
        },
        {
            "close_approach_date": "2015-09-09",
            "close_approach_date_full": "2015-Sep-09 04:46",
            "epoch_date_close_approach": 1441773960000,
            "relative_velocity": {
                "kilometers_per_second": "18.4534006531",
                "kilometers_per_hour": "66432.2423511802",
                "miles_per_hour": "41278.4119209319"
            },
            "miss_distance": {
                "astronomical": "0.003635815",
                "lunar": "1.414332035",
                "kilometers": "543910.17971405",
                "miles": "337970.11379189"
            },
            "orbiting_body": "Earth"
        }
    ],
    "orbital_data": {
        "orbit_id": "3",
        "orbit_determination_date": "2017-04-06 08:31:53",
        "first_observation_date": "2015-09-12",
        "last_observation_date": "2015-09-18",
        "data_arc_in_days": 6,
        "observations_used": 9,
        "orbit_uncertainty": "8",
        "minimum_orbit_intersection": ".00362353",
        "jupiter_tisserand_invariant": "3.233",
        "epoch_osculation": "2457279.5",
        "eccentricity": ".6820617533078743",
        "semi_major_axis": "2.295230511275149",
        "inclination": "6.249220610831856",
        "ascending_node_longitude": "167.8170658047684",
        "orbital_period": "1270.099922774785",
        "perihelion_distance": ".7297415645090921",
        "perihelion_argument": "106.7444514586736",
        "aphelion_distance": "3.860719458041206",
        "perihelion_time": "2457230.767049983025",
        "mean_anomaly": "13.8129777756249",
        "mean_motion": ".2834422658758286",
        "equinox": "J2000",
        "orbit_class": {
            "orbit_class_type": "APO",
            "orbit_class_description": "Near-Earth asteroid orbits which cross the Earth’s orbit similar to that of 1862 Apollo",
            "orbit_class_range": "a (semi-major axis) > 1.0 AU; q (perihelion) < 1.017 AU"
        }
    },
    "is_sentry_object": false
}